CCSDS_OMM_VERS = 2.0
CREATION_DATE  = 
ORIGINATOR     = 

OBJECT_NAME    = ALOS (DAICHI)
OBJECT_ID      = 2006-002A
CENTER_NAME    = EARTH
REF_FRAME      = TEME
TIME_SYSTEM    = UTC
MEAN_ELEMENT_THEORY = SGP/SGP4

EPOCH          = 2026-02-07T11:31:09.058080
MEAN_MOTION    = 14.69709768
ECCENTRICITY   = .00019798
INCLINATION    = 98.1171
RA_OF_ASC_NODE = 354.5999
ARG_OF_PERICENTER = 68.1134
MEAN_ANOMALY   = 292.0282

EPHEMERIS_TYPE = 0
CLASSIFICATION_TYPE = U
NORAD_CAT_ID   = 28931
ELEMENT_SET_NO = 999
REV_AT_EPOCH   = 6904
BSTAR          = .37297545E-3
MEAN_MOTION_DOT = .2173E-4
MEAN_MOTION_DDOT = 0

CCSDS_OMM_VERS = 2.0
CREATION_DATE  = 
ORIGINATOR     = 

OBJECT_NAME    = H-2A R/B
OBJECT_ID      = 2006-002B
CENTER_NAME    = EARTH
REF_FRAME      = TEME
TIME_SYSTEM    = UTC
MEAN_ELEMENT_THEORY = SGP/SGP4

EPOCH          = 2026-02-07T09:08:43.474272
MEAN_MOTION    = 15.15814290
ECCENTRICITY   = .00529077
INCLINATION    = 98.2362
RA_OF_ASC_NODE = 182.8257
ARG_OF_PERICENTER = 345.6531
MEAN_ANOMALY   = 14.3194

EPHEMERIS_TYPE = 0
CLASSIFICATION_TYPE = U
NORAD_CAT_ID   = 28932
ELEMENT_SET_NO = 999
REV_AT_EPOCH   = 8984
BSTAR          = .56342911E-3
MEAN_MOTION_DOT = .11081E-3
MEAN_MOTION_DDOT = 0

CCSDS_OMM_VERS = 2.0
CREATION_DATE  = 
ORIGINATOR     = 

OBJECT_NAME    = RESURS-DK 1
OBJECT_ID      = 2006-021A
CENTER_NAME    = EARTH
REF_FRAME      = TEME
TIME_SYSTEM    = UTC
MEAN_ELEMENT_THEORY = SGP/SGP4

EPOCH          = 2026-02-07T07:33:27.606240
MEAN_MOTION    = 15.12566599
ECCENTRICITY   = .00047456
INCLINATION    = 69.9349
RA_OF_ASC_NODE = 315.5838
ARG_OF_PERICENTER = 207.1437
MEAN_ANOMALY   = 152.9482

EPHEMERIS_TYPE = 0
CLASSIFICATION_TYPE = U
NORAD_CAT_ID   = 29228
ELEMENT_SET_NO = 999
REV_AT_EPOCH   = 8293
BSTAR          = .24259273E-3
MEAN_MOTION_DOT = .4136E-4
MEAN_MOTION_DDOT = 0

CCSDS_OMM_VERS = 2.0
CREATION_DATE  = 
ORIGINATOR     = 

OBJECT_NAME    = CZ-4B R/B
OBJECT_ID      = 2006-046C
CENTER_NAME    = EARTH
REF_FRAME      = TEME
TIME_SYSTEM    = UTC
MEAN_ELEMENT_THEORY = SGP/SGP4

EPOCH          = 2026-02-07T14:11:53.158272
MEAN_MOTION    = 15.16578761
ECCENTRICITY   = .00338281
INCLINATION    = 97.5651
RA_OF_ASC_NODE = 83.5788
ARG_OF_PERICENTER = 14.6461
MEAN_ANOMALY   = 345.5744

EPHEMERIS_TYPE = 0
CLASSIFICATION_TYPE = U
NORAD_CAT_ID   = 29507
ELEMENT_SET_NO = 999
REV_AT_EPOCH   = 5548
BSTAR          = .33517339E-3
MEAN_MOTION_DOT = .6571E-4
MEAN_MOTION_DDOT = 0

CCSDS_OMM_VERS = 2.0
CREATION_DATE  = 
ORIGINATOR     = 

OBJECT_NAME    = CZ-2C R/B
OBJECT_ID      = 2007-010B
CENTER_NAME    = EARTH
REF_FRAME      = TEME
TIME_SYSTEM    = UTC
MEAN_ELEMENT_THEORY = SGP/SGP4

EPOCH          = 2026-02-07T06:59:34.597824
MEAN_MOTION    = 14.20235581
ECCENTRICITY   = .0059377
INCLINATION    = 98.3969
RA_OF_ASC_NODE = 153.0969
ARG_OF_PERICENTER = 23.6602
MEAN_ANOMALY   = 336.7285

EPHEMERIS_TYPE = 0
CLASSIFICATION_TYPE = U
NORAD_CAT_ID   = 31114
ELEMENT_SET_NO = 999
REV_AT_EPOCH   = 97540
BSTAR          = .92914E-4
MEAN_MOTION_DOT = .161E-5
MEAN_MOTION_DDOT = 0

CCSDS_OMM_VERS = 2.0
CREATION_DATE  = 
ORIGINATOR     = 

OBJECT_NAME    = COSMO-SKYMED 1
OBJECT_ID      = 2007-023A
CENTER_NAME    = EARTH
REF_FRAME      = TEME
TIME_SYSTEM    = UTC
MEAN_ELEMENT_THEORY = SGP/SGP4

EPOCH          = 2026-02-07T15:22:42.998880
MEAN_MOTION    = 14.96295754
ECCENTRICITY   = .00009252
INCLINATION    = 97.8856
RA_OF_ASC_NODE = 229.4383
ARG_OF_PERICENTER = 75.1580
MEAN_ANOMALY   = 284.9743

EPHEMERIS_TYPE = 0
CLASSIFICATION_TYPE = U
NORAD_CAT_ID   = 31598
ELEMENT_SET_NO = 999
REV_AT_EPOCH   = 1041
BSTAR          = .38460995E-3
MEAN_MOTION_DOT = .4288E-4
MEAN_MOTION_DDOT = 0

CCSDS_OMM_VERS = 2.0
CREATION_DATE  = 
ORIGINATOR     = 

OBJECT_NAME    = COSMOS 2428
OBJECT_ID      = 2007-029A
CENTER_NAME    = EARTH
REF_FRAME      = TEME
TIME_SYSTEM    = UTC
MEAN_ELEMENT_THEORY = SGP/SGP4

EPOCH          = 2026-02-07T15:49:06.378240
MEAN_MOTION    = 14.12932067
ECCENTRICITY   = .00072363
INCLINATION    = 70.9396
RA_OF_ASC_NODE = 266.3824
ARG_OF_PERICENTER = 310.1881
MEAN_ANOMALY   = 49.8606

EPHEMERIS_TYPE = 0
CLASSIFICATION_TYPE = U
NORAD_CAT_ID   = 31792
ELEMENT_SET_NO = 999
REV_AT_EPOCH   = 95985
BSTAR          = .20379202E-3
MEAN_MOTION_DOT = .332E-5
MEAN_MOTION_DDOT = 0

CCSDS_OMM_VERS = 2.0
CREATION_DATE  = 
ORIGINATOR     = 

OBJECT_NAME    = SL-16 R/B
OBJECT_ID      = 2007-029B
CENTER_NAME    = EARTH
REF_FRAME      = TEME
TIME_SYSTEM    = UTC
MEAN_ELEMENT_THEORY = SGP/SGP4

EPOCH          = 2026-02-07T15:47:33.639072
MEAN_MOTION    = 14.14830921
ECCENTRICITY   = .00019156
INCLINATION    = 70.9732
RA_OF_ASC_NODE = 235.5118
ARG_OF_PERICENTER = 276.8731
MEAN_ANOMALY   = 147.9360

EPHEMERIS_TYPE = 0
CLASSIFICATION_TYPE = U
NORAD_CAT_ID   = 31793
ELEMENT_SET_NO = 999
REV_AT_EPOCH   = 96112
BSTAR          = .24896088E-3
MEAN_MOTION_DOT = .433E-5
MEAN_MOTION_DDOT = 0

CCSDS_OMM_VERS = 2.0
CREATION_DATE  = 
ORIGINATOR     = 

OBJECT_NAME    = KORONAS-FOTON
OBJECT_ID      = 2009-003A
CENTER_NAME    = EARTH
REF_FRAME      = TEME
TIME_SYSTEM    = UTC
MEAN_ELEMENT_THEORY = SGP/SGP4

EPOCH          = 2026-02-07T05:13:35.160384
MEAN_MOTION    = 15.42522452
ECCENTRICITY   = .0008905
INCLINATION    = 82.4325
RA_OF_ASC_NODE = 307.5353
ARG_OF_PERICENTER = 268.1026
MEAN_ANOMALY   = 91.9201

EPHEMERIS_TYPE = 0
CLASSIFICATION_TYPE = U
NORAD_CAT_ID   = 33504
ELEMENT_SET_NO = 999
REV_AT_EPOCH   = 94104
BSTAR          = .30177E-3
MEAN_MOTION_DOT = .13143E-3
MEAN_MOTION_DDOT = 0

CCSDS_OMM_VERS = 2.0
CREATION_DATE  = 
ORIGINATOR     = 

OBJECT_NAME    = CZ-2C R/B
OBJECT_ID      = 2011-030B
CENTER_NAME    = EARTH
REF_FRAME      = TEME
TIME_SYSTEM    = UTC
MEAN_ELEMENT_THEORY = SGP/SGP4

EPOCH          = 2026-02-07T11:48:53.994240
MEAN_MOTION    = 14.81105992
ECCENTRICITY   = .00542453
INCLINATION    = 97.8496
RA_OF_ASC_NODE = 356.3747
ARG_OF_PERICENTER = 88.6331
MEAN_ANOMALY   = 27.4800

EPHEMERIS_TYPE = 0
CLASSIFICATION_TYPE = U
NORAD_CAT_ID   = 37731
ELEMENT_SET_NO = 999
REV_AT_EPOCH   = 78562
BSTAR          = .27163433E-3
MEAN_MOTION_DOT = .2109E-4
MEAN_MOTION_DDOT = 0

CCSDS_OMM_VERS = 2.0
CREATION_DATE  = 
ORIGINATOR     = 

OBJECT_NAME    = H-2A R/B
OBJECT_ID      = 2012-025E
CENTER_NAME    = EARTH
REF_FRAME      = TEME
TIME_SYSTEM    = UTC
MEAN_ELEMENT_THEORY = SGP/SGP4

EPOCH          = 2026-02-07T11:26:33.525024
MEAN_MOTION    = 14.94901649
ECCENTRICITY   = .00459533
INCLINATION    = 98.4681
RA_OF_ASC_NODE = 3.1248
ARG_OF_PERICENTER = 52.5136
MEAN_ANOMALY   = 308.0247

EPHEMERIS_TYPE = 0
CLASSIFICATION_TYPE = U
NORAD_CAT_ID   = 38341
ELEMENT_SET_NO = 999
REV_AT_EPOCH   = 74370
BSTAR          = .41891489E-3
MEAN_MOTION_DOT = .4597E-4
MEAN_MOTION_DDOT = 0

CCSDS_OMM_VERS = 2.0
CREATION_DATE  = 
ORIGINATOR     = 

OBJECT_NAME    = SHIJIAN-16 (SJ-16)
OBJECT_ID      = 2013-057A
CENTER_NAME    = EARTH
REF_FRAME      = TEME
TIME_SYSTEM    = UTC
MEAN_ELEMENT_THEORY = SGP/SGP4

EPOCH          = 2026-02-07T15:52:16.027104
MEAN_MOTION    = 14.92239482
ECCENTRICITY   = .00168448
INCLINATION    = 74.9702
RA_OF_ASC_NODE = 241.9313
ARG_OF_PERICENTER = 187.3932
MEAN_ANOMALY   = 172.7010

EPHEMERIS_TYPE = 0
CLASSIFICATION_TYPE = U
NORAD_CAT_ID   = 39358
ELEMENT_SET_NO = 999
REV_AT_EPOCH   = 66702
BSTAR          = .20582156E-3
MEAN_MOTION_DOT = .2076E-4
MEAN_MOTION_DDOT = 0

