ALOS (DAICHI)           
1 28931U 06002A   26038.47996595  .00002173  00000+0  37298-3 0  9998
2 28931  98.1171 354.5999 0001979  68.1134 292.0282 14.69709768 69046
H-2A R/B                
1 28932U 06002B   26038.38105873  .00011081  00000+0  56343-3 0  9990
2 28932  98.2362 182.8257 0052907 345.6531  14.3194 15.15814290 89846
RESURS-DK 1             
1 29228U 06021A   26038.31490285  .00004136  00000+0  24259-3 0  9991
2 29228  69.9349 315.5838 0004745 207.1437 152.9482 15.12566599 82934
CZ-4B R/B               
1 29507U 06046C   26038.59158748  .00006571  00000+0  33517-3 0  9995
2 29507  97.5651  83.5788 0033828  14.6461 345.5744 15.16578761 55484
CZ-2C R/B               
1 31114U 07010B   26038.29137266  .00000161  00000+0  92914-4 0  9999
2 31114  98.3969 153.0969 0059377  23.6602 336.7285 14.20235581975409
COSMO-SKYMED 1          
1 31598U 07023A   26038.64077545  .00004288  00000+0  38461-3 0  9991
2 31598  97.8856 229.4383 0000925  75.1580 284.9743 14.96295754 10419
COSMOS 2428             
1 31792U 07029A   26038.65910160  .00000332  00000+0  20379-3 0  9998
2 31792  70.9396 266.3824 0007236 310.1881  49.8606 14.12932067959853
SL-16 R/B               
1 31793U 07029B   26038.65802823  .00000433  00000+0  24896-3 0  9995
2 31793  70.9732 235.5118 0001915 276.8731 147.9360 14.14830921961120
KORONAS-FOTON           
1 33504U 09003A   26038.21776806  .00013143  00000+0  30177-3 0  9995
2 33504  82.4325 307.5353 0008905 268.1026  91.9201 15.42522452941046
CZ-2C R/B               
1 37731U 11030B   26038.49229160  .00002109  00000+0  27163-3 0  9991
2 37731  97.8496 356.3747 0054245  88.6331  27.4800 14.81105992785629
H-2A R/B                
1 38341U 12025E   26038.47677691  .00004597  00000+0  41891-3 0  9995
2 38341  98.4681   3.1248 0045953  52.5136 308.0247 14.94901649743705
SHIJIAN-16 (SJ-16)      
1 39358U 13057A   26038.66129661  .00002076  00000+0  20582-3 0  9994
2 39358  74.9702 241.9313 0016844 187.3932 172.7010 14.92239482667021
